{
"type": "FeatureCollection",
"name": "stations_metro_stm",
"crs": { "type": "name", "properties": { "name": "urn:ogc:def:crs:OGC:1.3:CRS84" } },
"features": [
{ "type": "Feature", "properties": { "stop_id": "43", "nom": "Station Angrignon", "ligne": "Verte" }, "geometry": { "type": "Point", "coordinates": [ -73.603118, 45.446465999995141 ] } },
{ "type": "Feature", "properties": { "stop_id": "42", "nom": "Station Monk", "ligne": "Verte" }, "geometry": { "type": "Point", "coordinates": [ -73.593242, 45.451157999995146 ] } },
{ "type": "Feature", "properties": { "stop_id": "41", "nom": "Station Jolicoeur", "ligne": "Verte" }, "geometry": { "type": "Point", "coordinates": [ -73.581946, 45.457029999995108 ] } },
{ "type": "Feature", "properties": { "stop_id": "40", "nom": "Station Verdun", "ligne": "Verte" }, "geometry": { "type": "Point", "coordinates": [ -73.572272, 45.459416999995135 ] } },
{ "type": "Feature", "properties": { "stop_id": "39", "nom": "Station De l'Église", "ligne": "Verte" }, "geometry": { "type": "Point", "coordinates": [ -73.567074, 45.461893999995134 ] } },
{ "type": "Feature", "properties": { "stop_id": "38", "nom": "Station LaSalle", "ligne": "Verte" }, "geometry": { "type": "Point", "coordinates": [ -73.566267, 45.471062999995112 ] } },
{ "type": "Feature", "properties": { "stop_id": "37", "nom": "Station Charlevoix", "ligne": "Verte" }, "geometry": { "type": "Point", "coordinates": [ -73.569336, 45.478464999995126 ] } },
{ "type": "Feature", "properties": { "stop_id": "36", "nom": "Station Lionel-Groulx", "ligne": "Orange / Verte" }, "geometry": { "type": "Point", "coordinates": [ -73.58018, 45.482508999995133 ] } },
{ "type": "Feature", "properties": { "stop_id": "35", "nom": "Station Atwater", "ligne": "Verte" }, "geometry": { "type": "Point", "coordinates": [ -73.586078, 45.48979599999511 ] } },
{ "type": "Feature", "properties": { "stop_id": "34", "nom": "Station Guy-Concordia", "ligne": "Verte" }, "geometry": { "type": "Point", "coordinates": [ -73.57931, 45.495569999995134 ] } },
{ "type": "Feature", "properties": { "stop_id": "33", "nom": "Station Peel", "ligne": "Verte" }, "geometry": { "type": "Point", "coordinates": [ -73.574715, 45.500878999995116 ] } },
{ "type": "Feature", "properties": { "stop_id": "32", "nom": "Station McGill", "ligne": "Verte" }, "geometry": { "type": "Point", "coordinates": [ -73.571657, 45.504095999995144 ] } },
{ "type": "Feature", "properties": { "stop_id": "31", "nom": "Station Place-des-Arts", "ligne": "Verte" }, "geometry": { "type": "Point", "coordinates": [ -73.568433, 45.508219999995141 ] } },
{ "type": "Feature", "properties": { "stop_id": "30", "nom": "Station Saint-Laurent", "ligne": "Verte" }, "geometry": { "type": "Point", "coordinates": [ -73.564963, 45.51108099999513 ] } },
{ "type": "Feature", "properties": { "stop_id": "9999111", "nom": "Station Berri-UQAM", "ligne": "Verte" }, "geometry": { "type": "Point", "coordinates": [ -73.56108, 45.515316999995136 ] } },
{ "type": "Feature", "properties": { "stop_id": "9999112", "nom": "Station Berri-UQAM", "ligne": "Orange" }, "geometry": { "type": "Point", "coordinates": [ -73.561025, 45.515241999995141 ] } },
{ "type": "Feature", "properties": { "stop_id": "9999114", "nom": "Station Berri-UQAM", "ligne": "Jaune" }, "geometry": { "type": "Point", "coordinates": [ -73.561912, 45.514374999995127 ] } },
{ "type": "Feature", "properties": { "stop_id": "29", "nom": "Station Beaudry", "ligne": "Verte" }, "geometry": { "type": "Point", "coordinates": [ -73.557307, 45.519487999995128 ] } },
{ "type": "Feature", "properties": { "stop_id": "28", "nom": "Station Papineau", "ligne": "Verte" }, "geometry": { "type": "Point", "coordinates": [ -73.552964, 45.524114999995142 ] } },
{ "type": "Feature", "properties": { "stop_id": "27", "nom": "Station Frontenac", "ligne": "Verte" }, "geometry": { "type": "Point", "coordinates": [ -73.552216, 45.533525999995142 ] } },
{ "type": "Feature", "properties": { "stop_id": "26", "nom": "Station Préfontaine", "ligne": "Verte" }, "geometry": { "type": "Point", "coordinates": [ -73.554192, 45.541716999995131 ] } },
{ "type": "Feature", "properties": { "stop_id": "25", "nom": "Station Joliette", "ligne": "Verte" }, "geometry": { "type": "Point", "coordinates": [ -73.551418, 45.546839999995129 ] } },
{ "type": "Feature", "properties": { "stop_id": "24", "nom": "Station Pie-IX", "ligne": "Verte" }, "geometry": { "type": "Point", "coordinates": [ -73.551701, 45.553709999995135 ] } },
{ "type": "Feature", "properties": { "stop_id": "23", "nom": "Station Viau", "ligne": "Verte" }, "geometry": { "type": "Point", "coordinates": [ -73.547427, 45.560877999995107 ] } },
{ "type": "Feature", "properties": { "stop_id": "22", "nom": "Station Assomption", "ligne": "Verte" }, "geometry": { "type": "Point", "coordinates": [ -73.547566, 45.56925699999514 ] } },
{ "type": "Feature", "properties": { "stop_id": "21", "nom": "Station Cadillac", "ligne": "Verte" }, "geometry": { "type": "Point", "coordinates": [ -73.54671, 45.576842999995137 ] } },
{ "type": "Feature", "properties": { "stop_id": "20", "nom": "Station Langelier", "ligne": "Verte" }, "geometry": { "type": "Point", "coordinates": [ -73.543148, 45.582744999995121 ] } },
{ "type": "Feature", "properties": { "stop_id": "19", "nom": "Station Radisson", "ligne": "Verte" }, "geometry": { "type": "Point", "coordinates": [ -73.539224, 45.589413999995131 ] } },
{ "type": "Feature", "properties": { "stop_id": "18", "nom": "Station Honoré-Beaugrand", "ligne": "Verte" }, "geometry": { "type": "Point", "coordinates": [ -73.535357, 45.596571999995135 ] } },
{ "type": "Feature", "properties": { "stop_id": "65", "nom": "Station Côte-Vertu", "ligne": "Orange" }, "geometry": { "type": "Point", "coordinates": [ -73.682752, 45.514253999995134 ] } },
{ "type": "Feature", "properties": { "stop_id": "54", "nom": "Station Du Collège", "ligne": "Orange" }, "geometry": { "type": "Point", "coordinates": [ -73.674705, 45.509167999995135 ] } },
{ "type": "Feature", "properties": { "stop_id": "53", "nom": "Station De la Savane", "ligne": "Orange" }, "geometry": { "type": "Point", "coordinates": [ -73.66158, 45.500086999995126 ] } },
{ "type": "Feature", "properties": { "stop_id": "52", "nom": "Station Namur", "ligne": "Orange" }, "geometry": { "type": "Point", "coordinates": [ -73.652778, 45.494687999995122 ] } },
{ "type": "Feature", "properties": { "stop_id": "51", "nom": "Station Plamondon", "ligne": "Orange" }, "geometry": { "type": "Point", "coordinates": [ -73.638269, 45.494655999995139 ] } },
{ "type": "Feature", "properties": { "stop_id": "50", "nom": "Station Côte-Sainte-Catherine", "ligne": "Orange" }, "geometry": { "type": "Point", "coordinates": [ -73.633104, 45.492343999995136 ] } },
{ "type": "Feature", "properties": { "stop_id": "9999492", "nom": "Station Snowdon", "ligne": "Orange" }, "geometry": { "type": "Point", "coordinates": [ -73.628104, 45.485631999995135 ] } },
{ "type": "Feature", "properties": { "stop_id": "9999495", "nom": "Station Snowdon", "ligne": "Bleue" }, "geometry": { "type": "Point", "coordinates": [ -73.628552, 45.485719999995126 ] } },
{ "type": "Feature", "properties": { "stop_id": "48", "nom": "Station Villa-Maria", "ligne": "Orange" }, "geometry": { "type": "Point", "coordinates": [ -73.619761, 45.479749999995121 ] } },
{ "type": "Feature", "properties": { "stop_id": "47", "nom": "Station Vendôme", "ligne": "Orange" }, "geometry": { "type": "Point", "coordinates": [ -73.603762, 45.473907999995134 ] } },
{ "type": "Feature", "properties": { "stop_id": "46", "nom": "Station Place-Saint-Henri", "ligne": "Orange" }, "geometry": { "type": "Point", "coordinates": [ -73.586629, 45.477319999995139 ] } },
{ "type": "Feature", "properties": { "stop_id": "17", "nom": "Station Georges-Vanier", "ligne": "Orange" }, "geometry": { "type": "Point", "coordinates": [ -73.576457, 45.48894099999513 ] } },
{ "type": "Feature", "properties": { "stop_id": "16", "nom": "Station Lucien-L'Allier", "ligne": "Orange" }, "geometry": { "type": "Point", "coordinates": [ -73.571103, 45.494764999995112 ] } },
{ "type": "Feature", "properties": { "stop_id": "15", "nom": "Station Bonaventure", "ligne": "Orange" }, "geometry": { "type": "Point", "coordinates": [ -73.567293, 45.498129999995143 ] } },
{ "type": "Feature", "properties": { "stop_id": "14", "nom": "Station Square-Victoria–OACI", "ligne": "Orange" }, "geometry": { "type": "Point", "coordinates": [ -73.5631, 45.501909999995128 ] } },
{ "type": "Feature", "properties": { "stop_id": "13", "nom": "Station Place-d'Armes", "ligne": "Orange" }, "geometry": { "type": "Point", "coordinates": [ -73.559548, 45.506347999995121 ] } },
{ "type": "Feature", "properties": { "stop_id": "12", "nom": "Station Champ-de-Mars", "ligne": "Orange" }, "geometry": { "type": "Point", "coordinates": [ -73.556445, 45.510063999995118 ] } },
{ "type": "Feature", "properties": { "stop_id": "10", "nom": "Station Sherbrooke", "ligne": "Orange" }, "geometry": { "type": "Point", "coordinates": [ -73.569217, 45.519059999995122 ] } },
{ "type": "Feature", "properties": { "stop_id": "9", "nom": "Station Mont-Royal", "ligne": "Orange" }, "geometry": { "type": "Point", "coordinates": [ -73.581707, 45.524814999995122 ] } },
{ "type": "Feature", "properties": { "stop_id": "8", "nom": "Station Laurier", "ligne": "Orange" }, "geometry": { "type": "Point", "coordinates": [ -73.587002, 45.527435999995141 ] } },
{ "type": "Feature", "properties": { "stop_id": "7", "nom": "Station Rosemont", "ligne": "Orange" }, "geometry": { "type": "Point", "coordinates": [ -73.597696, 45.531735999995128 ] } },
{ "type": "Feature", "properties": { "stop_id": "6", "nom": "Station Beaubien", "ligne": "Orange" }, "geometry": { "type": "Point", "coordinates": [ -73.605037, 45.535077999995117 ] } },
{ "type": "Feature", "properties": { "stop_id": "9999052", "nom": "Station Jean-Talon", "ligne": "Orange" }, "geometry": { "type": "Point", "coordinates": [ -73.613941, 45.538910999995117 ] } },
{ "type": "Feature", "properties": { "stop_id": "9999055", "nom": "Station Jean-Talon", "ligne": "Bleue" }, "geometry": { "type": "Point", "coordinates": [ -73.615064, 45.539200999995124 ] } },
{ "type": "Feature", "properties": { "stop_id": "4", "nom": "Station Jarry", "ligne": "Orange" }, "geometry": { "type": "Point", "coordinates": [ -73.628721, 45.54315599999515 ] } },
{ "type": "Feature", "properties": { "stop_id": "3", "nom": "Station Crémazie", "ligne": "Orange" }, "geometry": { "type": "Point", "coordinates": [ -73.638842, 45.545998999995135 ] } },
{ "type": "Feature", "properties": { "stop_id": "2", "nom": "Station Sauvé", "ligne": "Orange" }, "geometry": { "type": "Point", "coordinates": [ -73.656102, 45.550894999995137 ] } },
{ "type": "Feature", "properties": { "stop_id": "1", "nom": "Station Henri-Bourassa", "ligne": "Orange" }, "geometry": { "type": "Point", "coordinates": [ -73.668474, 45.554440999995123 ] } },
{ "type": "Feature", "properties": { "stop_id": "66", "nom": "Station Cartier -Zone B", "ligne": "Orange" }, "geometry": { "type": "Point", "coordinates": [ -73.682229, 45.560042999995126 ] } },
{ "type": "Feature", "properties": { "stop_id": "67", "nom": "Station De la Concorde -Zone B", "ligne": "Orange" }, "geometry": { "type": "Point", "coordinates": [ -73.709391, 45.56068599999513 ] } },
{ "type": "Feature", "properties": { "stop_id": "68", "nom": "Station Montmorency -Zone B", "ligne": "Orange" }, "geometry": { "type": "Point", "coordinates": [ -73.722422, 45.558458999995118 ] } },
{ "type": "Feature", "properties": { "stop_id": "45", "nom": "Station Jean-Drapeau", "ligne": "Jaune" }, "geometry": { "type": "Point", "coordinates": [ -73.533128, 45.512453999995117 ] } },
{ "type": "Feature", "properties": { "stop_id": "44", "nom": "Station Longueuil-Université de Sherbrooke -Zone B", "ligne": "Jaune" }, "geometry": { "type": "Point", "coordinates": [ -73.521976, 45.524629999995149 ] } },
{ "type": "Feature", "properties": { "stop_id": "55", "nom": "Station Côte-des-Neiges", "ligne": "Bleue" }, "geometry": { "type": "Point", "coordinates": [ -73.623389, 45.496777999995118 ] } },
{ "type": "Feature", "properties": { "stop_id": "56", "nom": "Station Université-de-Montréal", "ligne": "Bleue" }, "geometry": { "type": "Point", "coordinates": [ -73.617641, 45.503317999995126 ] } },
{ "type": "Feature", "properties": { "stop_id": "57", "nom": "Station Édouard-Montpetit", "ligne": "Bleue" }, "geometry": { "type": "Point", "coordinates": [ -73.61281, 45.509907999995136 ] } },
{ "type": "Feature", "properties": { "stop_id": "58", "nom": "Station Outremont", "ligne": "Bleue" }, "geometry": { "type": "Point", "coordinates": [ -73.614856, 45.520280999995144 ] } },
{ "type": "Feature", "properties": { "stop_id": "59", "nom": "Station Acadie", "ligne": "Bleue" }, "geometry": { "type": "Point", "coordinates": [ -73.623285, 45.523382999995142 ] } },
{ "type": "Feature", "properties": { "stop_id": "60", "nom": "Station Parc", "ligne": "Bleue" }, "geometry": { "type": "Point", "coordinates": [ -73.624559, 45.53017699999512 ] } },
{ "type": "Feature", "properties": { "stop_id": "61", "nom": "Station De Castelnau", "ligne": "Bleue" }, "geometry": { "type": "Point", "coordinates": [ -73.619874, 45.535468999995139 ] } },
{ "type": "Feature", "properties": { "stop_id": "62", "nom": "Station Fabre", "ligne": "Bleue" }, "geometry": { "type": "Point", "coordinates": [ -73.608152, 45.546737999995145 ] } },
{ "type": "Feature", "properties": { "stop_id": "63", "nom": "Station D'Iberville", "ligne": "Bleue" }, "geometry": { "type": "Point", "coordinates": [ -73.601986, 45.553577999995127 ] } },
{ "type": "Feature", "properties": { "stop_id": "64", "nom": "Station Saint-Michel", "ligne": "Bleue" }, "geometry": { "type": "Point", "coordinates": [ -73.600023, 45.559572999995112 ] } }
]
}
